{"spkid": "50781025", "covariance": {"epoch": "2459084.5", "data": [["8.170606759558945E-12", "-7.022624512572001E-12", "5.862308404144308E-10", "4.430070182441731E-10", "-1.522306013308073E-10", "1.589678968551162E-10"], ["-7.022624512572001E-12", "6.03593845774812E-12", "-5.037349765287759E-10", "-3.807422294661241E-10", "1.308767710291085E-10", "-1.366286418084365E-10"], ["5.862308404144308E-10", "-5.037349765287759E-10", "6.225013795835651E-8", "3.498192115089343E-8", "-5.297547417977405E-9", "1.200321524570715E-8"], ["4.430070182441731E-10", "-3.807422294661241E-10", "3.498192115089343E-8", "3.682739755700515E-8", "-1.961496843497296E-8", "1.075510355108645E-8"], ["-1.522306013308073E-10", "1.308767710291085E-10", "-5.297547417977405E-9", "-1.961496843497296E-8", "1.661294460161569E-8", "-4.828449707574398E-9"], ["1.589678968551162E-10", "-1.366286418084365E-10", "1.200321524570715E-8", "1.075510355108645E-8", "-4.828449707574398E-9", "3.477473918653527E-9"]], "elements": [{"label": "e", "value": ".5260872106484197", "title": "eccentricity", "units": null, "sigma": 2.85842732277015e-06, "name": "e"}, {"label": "q", "name": "q", "sigma": 2.45681469747886e-06, "units": "au", "title": "perihelion distance", "value": ".4094685005874748"}, {"sigma": 0.000249499775467547, "name": "tp", "title": "time of perihelion passage", "value": "2459005.740436080095", "units": "TDB", "label": "tp"}, {"sigma": 0.000191904657465641, "name": "om", "units": "deg", "title": "longitude of the ascending node", "value": "115.6089575553755", "label": "node"}, {"label": "peri", "units": "deg", "value": "30.42114621754351", "title": "argument of perihelion", "sigma": 0.000128891212274599, "name": "w"}, {"units": "deg", "value": "5.336792309789381", "title": "inclination", "sigma": 5.89701103835963e-05, "name": "i", "label": "i"}], "labels": ["e", "q", "tp", "node", "peri", "i"]}, "elements": [{"name": "e", "sigma": "2.8571E-6", "title": "eccentricity", "value": ".526096284793184", "units": null, "label": "e"}, {"sigma": "1.6346E-8", "name": "a", "value": ".8641431984323162", "title": "semi-major axis", "units": "au", "label": "a"}, {"name": "q", "sigma": "2.4622E-6", "units": "au", "title": "perihelion distance", "value": ".4095206722077754", "label": "q"}, {"label": "i", "title": "inclination; angle with respect to x-y ecliptic plane", "value": "5.34069789825423", "units": "deg", "sigma": "5.8922E-5", "name": "i"}, {"name": "om", "sigma": ".00019289", "title": "longitude of the ascending node", "value": "115.5215647229763", "units": "deg", "label": "node"}, {"sigma": ".000129", "name": "w", "value": "30.5205320446412", "title": "argument of perihelion", "units": "deg", "label": "peri"}, {"label": "M", "name": "ma", "sigma": ".00040481", "units": "deg", "title": "mean anomaly", "value": "173.2363809830058"}, {"units": "TDB", "title": "time of perihelion passage", "value": "2461059.306858059802", "name": "tp", "sigma": ".00032601", "label": "tp"}, {"units": "d", "value": "293.4114116795", "title": "sidereal orbital period", "sigma": "8.3252E-6", "name": "per", "label": "period"}, {"label": "n", "sigma": "3.4813E-8", "name": "n", "value": "1.226946143435063", "title": "mean motion", "units": "deg/d"}, {"label": "Q", "sigma": "2.4946E-8", "name": "ad", "value": "1.318765724656857", "title": "aphelion distance", "units": "au"}], "epoch": "2461200.5"}